{
    "links": {
        "self": "http://www.neowsapp.com/rest/v1/neo/3605663?api_key=iIulBulltgU6a56xZRHN4H3l9WmuAYTsLGpBGhQ2"
    },
    "id": "3605663",
    "neo_reference_id": "3605663",
    "name": "(2012 LQ7)",
    "designation": "2012 LQ7",
    "nasa_jpl_url": "http://ssd.jpl.nasa.gov/sbdb.cgi?sstr=3605663",
    "absolute_magnitude_h": 24.1,
    "estimated_diameter": {
        "kilometers": {
            "estimated_diameter_min": 0.040230458,
            "estimated_diameter_max": 0.0899580388
        },
        "meters": {
            "estimated_diameter_min": 40.2304579834,
            "estimated_diameter_max": 89.9580388169
        },
        "miles": {
            "estimated_diameter_min": 0.0249980399,
            "estimated_diameter_max": 0.0558973165
        },
        "feet": {
            "estimated_diameter_min": 131.9896957704,
            "estimated_diameter_max": 295.1379320721
        }
    },
    "is_potentially_hazardous_asteroid": false,
    "close_approach_data": [
        {
            "close_approach_date": "2012-07-06",
            "close_approach_date_full": "2012-Jul-06 23:56",
            "epoch_date_close_approach": 1341618960000,
            "relative_velocity": {
                "kilometers_per_second": "7.9341889554",
                "kilometers_per_hour": "28563.0802394993",
                "miles_per_hour": "17747.9872743711"
            },
            "miss_distance": {
                "astronomical": "0.1077875626",
                "lunar": "41.9293618514",
                "kilometers": "16124789.777451662",
                "miles": "10019479.7582584556"
            },
            "orbiting_body": "Earth"
        }
    ],
    "orbital_data": {
        "orbit_id": "10",
        "orbit_determination_date": "2017-04-06 08:49:36",
        "first_observation_date": "2012-06-13",
        "last_observation_date": "2012-06-25",
        "data_arc_in_days": 12,
        "observations_used": 31,
        "orbit_uncertainty": "8",
        "minimum_orbit_intersection": ".0981548",
        "jupiter_tisserand_invariant": "3.343",
        "epoch_osculation": "2456093.5",
        "eccentricity": ".5291294709701713",
        "semi_major_axis": "2.340529371467251",
        "inclination": "10.2062199951758",
        "ascending_node_longitude": "89.52257365192308",
        "orbital_period": "1307.88503366276",
        "perihelion_distance": "1.102086303352637",
        "perihelion_argument": "201.2079807302614",
        "aphelion_distance": "3.578972439581865",
        "perihelion_time": "2456122.823672538318",
        "mean_anomaly": "351.9285550013286",
        "mean_motion": ".2752535511411216",
        "equinox": "J2000",
        "orbit_class": {
            "orbit_class_type": "AMO",
            "orbit_class_description": "Near-Earth asteroid orbits similar to that of 1221 Amor",
            "orbit_class_range": "1.017 AU < q (perihelion) < 1.3 AU"
        }
    },
    "is_sentry_object": false
}